YUBILEINY (RS30)        
1 32953U 08025A   26109.18848841 -.00000009  00000+0 -13561-3 0  9996
2 32953  82.5079  32.1328 0020631  79.7003 280.6401 12.43177306812367
KKS-1 (KISEKI)          
1 33499U 09002H   26109.15303764  .00000968  00000+0  12599-3 0  9997
2 33499  98.1190  30.6685 0009131 116.7153 243.4996 14.82967246927446
SWISSCUBE               
1 35932U 09051B   26109.19047954  .00000728  00000+0  15380-3 0  9990
2 35932  98.4070  16.0472 0007770  43.9950 316.1868 14.62363100880536
BEESAT-1                
1 35933U 09051C   26109.16958308  .00000608  00000+0  13207-3 0  9995
2 35933  98.3998  15.7836 0006413  57.6454 302.5366 14.61620321880564
ITUPSAT1                
1 35935U 09051E   26109.17748797  .00000565  00000+0  12689-3 0  9992
2 35935  98.4085  15.0454 0008708  65.3905 294.8201 14.60348211880126
XIWANG-1 (HOPE-1)       
1 36122U 09072B   26109.11656850 -.00000254  00000+0 -54793-3 0  9995
2 36122 100.3982  63.9058 0007746  13.5337 346.5982 13.16436865785231
O/OREOS (USA 219)       
1 37224U 10062C   26108.98988391  .00001577  00000+0  15545-3 0  9991
2 37224  71.9704 214.4010 0014781 187.0557 173.0408 14.93501969107800
JUGNU                   
1 37839U 11058B   26108.88420394  .00000401  00000+0  69966-4 0  9994
2 37839  19.9619 308.7115 0018586 141.5286   1.7380 14.13757964750623
SRMSAT                  
1 37841U 11058D   26109.19060689  .00000364  00000+0  53735-4 0  9994
2 37841  19.9726  56.5591 0011585 274.5686 127.7309 14.11561180749476
STRAND-1                
1 39090U 13009E   26109.01604507  .00000190  00000+0  78199-4 0  9992
2 39090  98.3911 290.7099 0009563  53.3199 306.8865 14.37127277688563
ZACUBE-1 (TSHEPISOSAT)  
1 39417U 13066B   26109.14142770  .00003387  00000+0  26687-3 0  9996
2 39417  97.8134  71.1640 0044771  89.5543 271.0810 15.00688677671870
GOMX-1                  
1 39430U 13066Q   26109.14356889  .00000740  00000+0  11900-3 0  9991
2 39430  97.6526 313.3226 0127515 267.2114  91.4493 14.69239023661248
CUBEBUG-2 (LO-74)       
1 39440U 13066AA  26109.10604876  .00001832  00000+0  17515-3 0  9991
2 39440  97.8868  57.8718 0056834 222.2027 137.4811 14.93350292668178
FUNCUBE-1 (AO-73)       
1 39444U 13066AE  26109.17601034  .00007379  00000+0  46758-3 0  9998
2 39444  97.8250  79.4421 0038479  46.9235 313.5202 15.08634040670767
UWE-3                   
1 39446U 13066AG  26108.85127889  .00002110  00000+0  18630-3 0  9991
2 39446  97.8662  64.5682 0049810 155.7852 204.5726 14.96546364668703
UNISAT-6                
1 40012U 14033C   26109.16127627  .00002025  00000+0  22352-3 0  9993
2 40012  97.7804 262.9510 0043979 262.6856  96.9361 14.87893994637389
DUCHIFAT-1              
1 40021U 14033M   26109.11222488  .00061001  00000+0  90385-3 0  9999
2 40021  98.0541 160.4650 0003304 263.0735  97.0142 15.55057271646540
QB50P1                  
1 40025U 14033R   26108.74982709  .00007654  00000+0  38714-3 0  9992
2 40025  98.0994 115.7680 0010623  73.9226 286.3175 15.17307519644017
LILACSAT-2              
1 40908U 15049K   26109.15371753  .00015883  00000+0  28971-3 0  9994
2 40908  97.4732 143.8124 0008911 105.6996 254.5238 15.49486734586608
FOX-1A (AO-85)          
1 40967U 15058D   26108.98426744  .00001927  00000+0  18335-3 0  9997
2 40967  64.7727 102.9143 0128451  79.8201 281.7370 14.90600142104740
CAS-2T & KS-1Q          
1 41847U 16066G   26109.15794587  .00000428  00000+0  70346-4 0  9994
2 41847  98.3837 185.5587 0341235 308.8026  48.3143 14.44558371496271
RADFXSAT (FOX-1B)       
1 43017U 17073E   26109.05015858  .00008439  00000+0  37564-3 0  9994
2 43017  97.4783 337.5011 0153713 172.1328 188.2368 15.11639961456451
DIWATA-2B               
1 43678U 18084H   26109.14537074  .00001354  00000+0  11350-3 0  9993
2 43678  98.1043 302.8489 0013738   9.1625 350.9845 15.00158225407367
ES'HAIL 2               
1 43700U 18090A   26109.15507899  .00000147  00000+0  00000+0 0  9994
2 43700   0.0170 243.1391 0001029 156.0119 249.7096  1.00270600 27082
FOX-1CLIFF (AO-95)      
1 43770U 18099N   26109.12947020  .00009272  00000+0  36931-3 0  9995
2 43770  97.4429 169.6382 0009010 185.6183 174.4955 15.25416443404216
ITASAT                  
1 43786U 18099AE  26109.11635572  .00005226  00000+0  25773-3 0  9994
2 43786  97.4084 161.8240 0012595 191.2493 168.8461 15.18283427403940
JY1SAT (JO-97)          
1 43803U 18099AX  26109.14142808  .00014114  00000+0  46205-3 0  9991
2 43803  97.4174 171.8433 0007448 118.7802 241.4188 15.31761930404584
UWE-4                   
1 43880U 18111E   26109.05510637  .00025662  00000+0  59073-3 0  9997
2 43880  97.5864  34.8943 0008903 159.6115 200.5489 15.42573648401652
TIANYAN 01              
1 44881U 19093C   26109.14415380  .00000289  00000+0  38785-4 0  9994
2 44881  97.7556 182.8122 0012149 282.9795  77.0064 14.86419891342643
RS-44 & BREEZE-KM R/B   
1 44909U 19096E   26109.13477521  .00000023  00000+0  55873-4 0  9995
2 44909  82.5263  18.9444 0216409 282.5626  75.1349 12.79747877294796
SALSAT                  
1 46495U 20068K   26108.93221701  .00006776  00000+0  24384-3 0  9995
2 46495  97.8865 108.4319 0011033 142.3289 217.8724 15.28908741306304
XW-3 (CAS-9)            
1 50466U 21131B   26109.18591944  .00000156  00000+0  61939-4 0  9991
2 50466  98.4954 201.9056 0002841 276.2145  83.8720 14.41298056226612
GREENCUBE (IO-117)      
1 53109U 22080E   26106.55228240 -.00000003  00000+0  00000+0 0  9995
2 53109  70.1493 319.6911 0008887 303.6327  56.3485  6.42583340 88102
UMKA 1 (RS40S)          
1 57172U 23091G   26109.19289205  .00004819  00000+0  22562-3 0  9992
2 57172  97.5098 168.1319 0011860 331.7709  28.2881 15.20147906155046
CUBESX-HSE 3 (RS42S)    
1 57178U 23091N   26109.13347023  .00010466  00000+0  36539-3 0  9999
2 57178  97.5132 174.0307 0009444 304.4164  55.6183 15.29740056155392
MONITOR-3 (RS58S)       
1 57180U 23091Q   26109.09915344  .00008637  00000+0  33154-3 0  9991
2 57180  97.5125 172.1525 0010418 312.0825  47.9527 15.26665242155273
MONITOR-4 (RS57S)       
1 57182U 23091S   26109.14743552  .00008336  00000+0  31920-3 0  9994
2 57182  97.5120 172.1684 0010400 312.4067  47.6291 15.26759771155286
MONITOR-2 (RS39S)       
1 57184U 23091U   26109.14262139  .00003576  00000+0  17722-3 0  9998
2 57184  97.5121 167.8158 0010129 324.7499  35.3064 15.18363016154992
SVYATOBOR 1 (RS60S)     
1 57187U 23091X   26109.17853994  .00007689  00000+0  30517-3 0  9995
2 57187  97.5132 172.7018 0008003 303.9590  56.0886 15.25612478155312
VIZARD-METEO (RS38S)    
1 57189U 23091Z   26109.15417206  .00013890  00000+0  42201-3 0  9991
2 57189  97.5126 177.5327 0005907 278.7254  81.3319 15.34165530155638
NANOZOND 1 (RS49S)      
1 57190U 23091AA  26109.15904359  .04658244  25156-5  16100-2 0  9998
2 57190  97.4829 193.5863 0014040 265.1798  94.7890 16.25119868156708
POLYTECH-UNIVERSE 3 (R*)
1 57191U 23091AB  26109.17753161  .00004264  00000+0  20920-3 0  9998
2 57191  97.5096 167.3561 0014820 340.5069  19.5596 15.18559420154995
UTMN 2 (RS27S)          
1 57203U 23091AP  26109.18410958  .00011157  00000+0  37930-3 0  9995
2 57203  97.5124 175.6426 0006629 289.1535  70.8988 15.30609141155511
KUZGTU 1 (RS47S)        
1 57217U 23091AV  26109.20592543  .00010070  00000+0  36501-3 0  9990
2 57217  97.5105 173.1345 0009655 308.3611  51.6761 15.28520787155363
SONATE-2                
1 59112U 24043Q   26109.12331574  .00034379  00000+0  52127-3 0  9990
2 59112  97.5472 256.1189 0007150  65.0290 295.1706 15.54527845118704
MESAT1                  
1 60209U 24125G   26109.09806596  .00044453  00000+0  60395-3 0  9997
2 60209  97.2379 325.4728 0012392  80.6032 279.6624 15.57397906100350
OOV-CUBE (TUBSAT-30)    
1 60240U 24128F   26109.16245125  .00001586  00000+0  13161-3 0  9997
2 60240  61.9939  71.3416 0051162 120.8538 239.7601 15.02476744 97245
COLIBRI-S (RS67S)       
1 61746U 24199M   26109.17933084  .00019926  00000+0  41922-3 0  9999
2 61746  97.3078 342.5785 0010546 128.3233 231.8965 15.45275790128293
HORS 3 (RS81S)          
1 61753U 24199U   26109.19455229  .00030185  00000+0  51808-3 0  9993
2 61753  97.3054 344.0134 0008945 129.9893 230.2146 15.51080232128408
HORS 4 (RS82S)          
1 61754U 24199V   26109.18002119  .00037951  00000+0  57366-3 0  9992
2 61754  97.3019 344.8739 0008250 125.7129 234.4894 15.54581119128469
HORIZON (RS59S)         
1 61757U 24199Y   26109.15411052  .00306586  00000+0  12023-2 0  9995
2 61757  97.2941 350.1846 0006434 122.6687 237.5205 15.86164181128800
ARCTICSAT 1 (RS74S)     
1 61762U 24199AD  26109.15172219  .00151587  00000+0  96949-3 0  9999
2 61762  97.2979 349.2912 0006995 111.5970 248.6042 15.75858911128748
SIT-2086                
1 61764U 24199AF  26109.16927102  .00021296  00000+0  38531-3 0  9997
2 61764  97.3045 344.6482 0008189 118.9510 241.2563 15.49658055125285
HYPERVIEW 1G (RS66S)    
1 61772U 24199AP  26109.14124491  .00077705  00000+0  81767-3 0  9999
2 61772  97.2991 346.4301 0009401 125.5783 234.6354 15.63998346125412
ALTAIR (RS65S)          
1 61779U 24199AW  26109.17156769  .00007114  00000+0  20530-3 0  9990
2 61779  97.3107 338.9352 0014004 151.5014 208.6999 15.35898880128052
ASRTU-1 (AO-123)        
1 61781U 24199AY  26109.17780789  .00006987  00000+0  20880-3 0  9993
2 61781  97.3080 338.3918 0014857 154.3045 205.8940 15.34793855124874
TUSUR GO (RS78S)        
1 61782U 24199AZ  26109.18388416  .00396273  60593-4  13213-2 0  9995
2 61782  97.2864 349.3118 0007105 134.4215 225.7641 15.90171204125616
SAMSAT-IONOSPHERE (RS7*)
1 61784U 24199BB  26109.18118971  .00037518  00000+0  60442-3 0  9997
2 61784  97.3040 343.8748 0011214 132.6600 227.5600 15.52786913128397
RTU MIREA 1 (RS51S)     
1 61785U 24199BC  26109.18671956  .00044752  00000+0  65932-3 0  9992
2 61785  97.3031 344.4588 0011363 130.2824 229.9425 15.55215340125284
